{
  "type": "FeatureCollection",
  "features": [
    {
      "type": "Feature",
      "properties": {
        "norad_id": 31825,
        "name": "FENGYUN 1C DEB",
        "group": "fengyun-1c-debris",
        "lat": -59.723977530421806,
        "lon": 6.910498745829542,
        "alt_km": 716.5970064088342,
        "timestamp": "2025-12-18T10:51:26.092139+00:00",
        "meta_object_name": "FENGYUN 1C DEB",
        "meta_object_id": "1999-025CHP",
        "meta_epoch": "2025-12-17T04:43:49.911744",
        "meta_mean_motion": 14.21662941,
        "meta_eccentricity": 0.01653517,
        "meta_inclination": 98.5902,
        "meta_ra_of_asc_node": 350.6819,
        "meta_arg_of_pericenter": 325.3781,
        "meta_mean_anomaly": 33.6718,
        "meta_ephemeris_type": 0,
        "meta_classification_type": "U",
        "meta_norad_cat_id": 31825,
        "meta_element_set_no": 999,
        "meta_rev_at_epoch": 95685,
        "meta_bstar": 0.00053669214,
        "meta_mean_motion_dot": 1.309e-05,
        "meta_mean_motion_ddot": 0,
        "tle_line1": "1 31825U 99025CHP 25351.19710546  .00001309  00000+0  53669-3 0  9997",
        "tle_line2": "2 31825  98.5902 350.6819 0165351 325.3781  33.6718 14.21662941956853"
      },
      "geometry": {
        "type": "Point",
        "coordinates": [
          6.910498745829542,
          -59.723977530421806
        ]
      }
    },
    {
      "type": "Feature",
      "properties": {
        "norad_id": 31826,
        "name": "FENGYUN 1C DEB",
        "group": "fengyun-1c-debris",
        "lat": 64.33726396281115,
        "lon": -178.1526649723795,
        "alt_km": 774.0079023237295,
        "timestamp": "2025-12-18T10:51:26.092149+00:00",
        "meta_object_name": "FENGYUN 1C DEB",
        "meta_object_id": "1999-025CHQ",
        "meta_epoch": "2025-12-17T11:20:31.536672",
        "meta_mean_motion": 14.19282356,
        "meta_eccentricity": 0.01241489,
        "meta_inclination": 98.626,
        "meta_ra_of_asc_node": 342.4759,
        "meta_arg_of_pericenter": 175.6113,
        "meta_mean_anomaly": 336.4412,
        "meta_ephemeris_type": 0,
        "meta_classification_type": "U",
        "meta_norad_cat_id": 31826,
        "meta_element_set_no": 999,
        "meta_rev_at_epoch": 95881,
        "meta_bstar": 0.00029972174,
        "meta_mean_motion_dot": 6.37e-06,
        "meta_mean_motion_ddot": 0,
        "tle_line1": "1 31826U 99025CHQ 25351.47258723  .00000637  00000+0  29972-3 0  9996",
        "tle_line2": "2 31826  98.6260 342.4759 0124148 175.6113 336.4412 14.19282356958816"
      },
      "geometry": {
        "type": "Point",
        "coordinates": [
          -178.1526649723795,
          64.33726396281115
        ]
      }
    },
    {
      "type": "Feature",
      "properties": {
        "norad_id": 31829,
        "name": "FENGYUN 1C DEB",
        "group": "fengyun-1c-debris",
        "lat": 34.08305707401706,
        "lon": 155.94620750399562,
        "alt_km": 980.0887842388847,
        "timestamp": "2025-12-18T10:51:26.092160+00:00",
        "meta_object_name": "FENGYUN 1C DEB",
        "meta_object_id": "1999-025CHT",
        "meta_epoch": "2025-12-17T17:28:41.251008",
        "meta_mean_motion": 13.88689135,
        "meta_eccentricity": 0.01692756,
        "meta_inclination": 98.8357,
        "meta_ra_of_asc_node": 161.3008,
        "meta_arg_of_pericenter": 150.8846,
        "meta_mean_anomaly": 227.3761,
        "meta_ephemeris_type": 0,
        "meta_classification_type": "U",
        "meta_norad_cat_id": 31829,
        "meta_element_set_no": 999,
        "meta_rev_at_epoch": 94217,
        "meta_bstar": 0.0003456228,
        "meta_mean_motion_dot": 4.27e-06,
        "meta_mean_motion_ddot": 0,
        "tle_line1": "1 31829U 99025CHT 25351.72825522  .00000427  00000+0  34562-3 0  9992",
        "tle_line2": "2 31829  98.8357 161.3008 0169275 150.8846 227.3761 13.88689135942179"
      },
      "geometry": {
        "type": "Point",
        "coordinates": [
          155.94620750399562,
          34.08305707401706
        ]
      }
    },
    {
      "type": "Feature",
      "properties": {
        "norad_id": 31830,
        "name": "FENGYUN 1C DEB",
        "group": "fengyun-1c-debris",
        "lat": -61.71199261956023,
        "lon": 115.4466495050959,
        "alt_km": 825.0712936722448,
        "timestamp": "2025-12-18T10:51:26.092170+00:00",
        "meta_object_name": "FENGYUN 1C DEB",
        "meta_object_id": "1999-025CHU",
        "meta_epoch": "2025-12-15T06:54:50.226048",
        "meta_mean_motion": 13.8343162,
        "meta_eccentricity": 0.01825744,
        "meta_inclination": 99.1632,
        "meta_ra_of_asc_node": 94.9109,
        "meta_arg_of_pericenter": 307.6254,
        "meta_mean_anomaly": 78.4234,
        "meta_ephemeris_type": 0,
        "meta_classification_type": "U",
        "meta_norad_cat_id": 31830,
        "meta_element_set_no": 999,
        "meta_rev_at_epoch": 92775,
        "meta_bstar": 0.0017258986,
        "meta_mean_motion_dot": 2.116e-05,
        "meta_mean_motion_ddot": 0,
        "tle_line1": "1 31830U 99025CHU 25349.28808132  .00002116  00000+0  17259-2 0  9990",
        "tle_line2": "2 31830  99.1632  94.9109 0182574 307.6254  78.4234 13.83431620927752"
      },
      "geometry": {
        "type": "Point",
        "coordinates": [
          115.4466495050959,
          -61.71199261956023
        ]
      }
    },
    {
      "type": "Feature",
      "properties": {
        "norad_id": 31834,
        "name": "FENGYUN 1C DEB",
        "group": "fengyun-1c-debris",
        "lat": 48.6277669613041,
        "lon": 41.8189448742888,
        "alt_km": 834.6276712010931,
        "timestamp": "2025-12-18T10:51:26.092180+00:00",
        "meta_object_name": "FENGYUN 1C DEB",
        "meta_object_id": "1999-025CHY",
        "meta_epoch": "2025-12-17T20:33:43.085088",
        "meta_mean_motion": 14.03156821,
        "meta_eccentricity": 0.0162661,
        "meta_inclination": 98.3673,
        "meta_ra_of_asc_node": 211.6515,
        "meta_arg_of_pericenter": 63.1961,
        "meta_mean_anomaly": 298.574,
        "meta_ephemeris_type": 0,
        "meta_classification_type": "U",
        "meta_norad_cat_id": 31834,
        "meta_element_set_no": 999,
        "meta_rev_at_epoch": 63782,
        "meta_bstar": 0.00021867643,
        "meta_mean_motion_dot": 3.45e-06,
        "meta_mean_motion_ddot": 0,
        "tle_line1": "1 31834U 99025CHY 25351.85674867  .00000345  00000+0  21868-3 0  9990",
        "tle_line2": "2 31834  98.3673 211.6515 0162661  63.1961 298.5740 14.03156821637828"
      },
      "geometry": {
        "type": "Point",
        "coordinates": [
          41.8189448742888,
          48.6277669613041
        ]
      }
    },
    {
      "type": "Feature",
      "properties": {
        "norad_id": 31837,
        "name": "FENGYUN 1C DEB",
        "group": "fengyun-1c-debris",
        "lat": -38.95218086090293,
        "lon": -118.54771823588914,
        "alt_km": 678.1538920966696,
        "timestamp": "2025-12-18T10:51:26.092191+00:00",
        "meta_object_name": "FENGYUN 1C DEB",
        "meta_object_id": "1999-025CJB",
        "meta_epoch": "2025-12-17T11:11:13.196544",
        "meta_mean_motion": 14.8231702,
        "meta_eccentricity": 0.00932487,
        "meta_inclination": 98.1004,
        "meta_ra_of_asc_node": 67.0654,
        "meta_arg_of_pericenter": 2.43,
        "meta_mean_anomaly": 357.7347,
        "meta_ephemeris_type": 0,
        "meta_classification_type": "U",
        "meta_norad_cat_id": 31837,
        "meta_element_set_no": 999,
        "meta_rev_at_epoch": 98429,
        "meta_bstar": 0.00072690461,
        "meta_mean_motion_dot": 6.211e-05,
        "meta_mean_motion_ddot": 0,
        "tle_line1": "1 31837U 99025CJB 25351.46612496  .00006211  00000+0  72690-3 0  9997",
        "tle_line2": "2 31837  98.1004  67.0654 0093248   2.4300 357.7347 14.82317020984295"
      },
      "geometry": {
        "type": "Point",
        "coordinates": [
          -118.54771823588914,
          -38.95218086090293
        ]
      }
    },
    {
      "type": "Feature",
      "properties": {
        "norad_id": 31838,
        "name": "FENGYUN 1C DEB",
        "group": "fengyun-1c-debris",
        "lat": -69.45950632540708,
        "lon": 67.24485958726665,
        "alt_km": 852.716127880366,
        "timestamp": "2025-12-18T10:51:26.092201+00:00",
        "meta_object_name": "FENGYUN 1C DEB",
        "meta_object_id": "1999-025CJC",
        "meta_epoch": "2025-12-17T08:26:31.079040",
        "meta_mean_motion": 14.21147066,
        "meta_eccentricity": 0.00383301,
        "meta_inclination": 98.7181,
        "meta_ra_of_asc_node": 41.9841,
        "meta_arg_of_pericenter": 82.4051,
        "meta_mean_anomaly": 338.6922,
        "meta_ephemeris_type": 0,
        "meta_classification_type": "U",
        "meta_norad_cat_id": 31838,
        "meta_element_set_no": 999,
        "meta_rev_at_epoch": 64642,
        "meta_bstar": 0.00054487511,
        "meta_mean_motion_dot": 1.15e-05,
        "meta_mean_motion_ddot": 0,
        "tle_line1": "1 31838U 99025CJC 25351.35174860  .00001150  00000+0  54488-3 0  9996",
        "tle_line2": "2 31838  98.7181  41.9841 0038330  82.4051 338.6922 14.21147066646420"
      },
      "geometry": {
        "type": "Point",
        "coordinates": [
          67.24485958726665,
          -69.45950632540708
        ]
      }
    }
  ]
}